H1 CPF 01  gfz 2022 09 25 00  7681 terrasarx 
H2 0702601  6201 31698    2022 09 25 00 59 42 2022 09 30 00 00 42   120 1 1  0 0 0
H9
10 0 59850  75582.000000  0   -4925842.943   4567713.783   1518993.101
10 0 59850  75702.000000  0   -4905468.551   4795569.484    625653.259
10 0 59850  75822.000000  0   -4796094.687   4938455.724   -278703.878
10 0 59850  75942.000000  0   -4601194.282   4992386.402  -1178157.185
10 0 59850  76062.000000  0   -4325803.434   4955023.195  -2056890.838
10 0 59850  76182.000000  0   -3976397.072   4825738.349  -2899480.044
10 0 59850  76302.000000  0   -3560737.939   4605641.992  -3691168.161
10 0 59850  76422.000000  0   -3087701.077   4297573.793  -4418126.449
10 0 59850  76542.000000  0   -2567080.912   3906060.911  -5067692.111
10 0 59850  76662.000000  0   -2009386.410   3437245.211  -5628581.664
10 0 59850  76782.000000  0   -1425627.791   2898780.525  -6091078.961
10 0 59850  76902.000000  0    -827098.656   2299701.028  -6447193.347
10 0 59850  77022.000000  0    -225159.146   1650265.641  -6690785.655
10 0 59850  77142.000000  0     368975.636    961781.683  -6817663.361
10 0 59850  77262.000000  0     944439.194    246410.492  -6825645.620
10 0 59850  77382.000000  0    1490908.565   -483043.498  -6714597.191
10 0 59850  77502.000000  0    1998784.793  -1213356.944  -6486428.833
10 0 59850  77622.000000  0    2459357.712  -1931120.873  -6145068.099
10 0 59850  77742.000000  0    2864953.792  -2622980.750  -5696399.195
10 0 59850  77862.000000  0    3209065.085  -3275882.035  -5148173.648
10 0 59850  77982.000000  0    3486457.140  -3877317.734  -4509886.387
10 0 59850  78102.000000  0    3693250.913  -4415568.852  -3792620.542
10 0 59850  78222.000000  0    3826980.056  -4879936.101  -3008865.558
10 0 59850  78342.000000  0    3886622.594  -5260959.432  -2172307.309
10 0 59850  78462.000000  0    3872602.947  -5550618.714  -1297591.210
10 0 59850  78582.000000  0    3786764.812  -5742508.441   -400064.641
10 0 59850  78702.000000  0    3632314.737  -5831983.436    504497.551
10 0 59850  78822.000000  0    3413737.094  -5816270.298   1400177.214
10 0 59850  78942.000000  0    3136683.742  -5694542.050   2271202.646
10 0 59850  79062.000000  0    2807838.527  -5467951.383   3102235.552
10 0 59850  79182.000000  0    2434762.019  -5139624.959   3878647.545
10 0 59850  79302.000000  0    2025721.476  -4714618.453   4586782.476
10 0 59850  79422.000000  0    1589508.996  -4199832.840   5214199.191
10 0 59850  79542.000000  0    1135253.510  -3603894.855   5749889.890
10 0 59850  79662.000000  0     672228.840  -2937003.527   6184470.629
10 0 59850  79782.000000  0     209664.107  -2210748.257   6510338.922
10 0 59850  79902.000000  0    -243439.215  -1437902.832   6721799.606
10 0 59850  80022.000000  0    -678480.976   -632199.002   6815159.275
10 0 59850  80142.000000  0   -1087424.371    191919.020   6788787.558
10 0 59850  80262.000000  0   -1462943.769   1019553.527   6643143.528
10 0 59850  80382.000000  0   -1798555.499   1835621.824   6380767.920
10 0 59850  80502.000000  0   -2088730.272   2625130.248   6006241.778
10 0 59850  80622.000000  0   -2328985.031   3373450.132   5526111.197
10 0 59850  80742.000000  0   -2515952.994   4066590.791   4948779.403
10 0 59850  80862.000000  0   -2647431.688   4691466.125   4284366.444
10 0 59850  80982.000000  0   -2722406.599   5236148.772   3544536.441
10 0 59850  81102.000000  0   -2741049.889   5690106.062   2742294.666
10 0 59850  81222.000000  0   -2704693.923   6044411.507   1891758.179
10 0 59850  81342.000000  0   -2615780.580   6291927.607   1007904.276
10 0 59850  81462.000000  0   -2477786.633   6427455.145    106301.057
10 0 59850  81582.000000  0   -2295127.570   6447845.010   -797174.592
10 0 59850  81702.000000  0   -2073042.447   6352069.731  -1686626.603
10 0 59850  81822.000000  0   -1817460.826   6141249.110  -2546431.139
10 0 59850  81942.000000  0   -1534856.238   5818630.024  -3361516.388
10 0 59850  82062.000000  0   -1232092.369   5389527.468  -4117628.207
10 0 59850  82182.000000  0    -916264.840   4861225.408  -4801578.755
10 0 59850  82302.000000  0    -594542.203   4242841.631  -5401471.287
10 0 59850  82422.000000  0    -274009.545   3545160.727  -5906900.190
10 0 59850  82542.000000  0      38482.205   2780437.000  -6309122.426
10 0 59850  82662.000000  0     336457.185   1962172.976  -6601196.811
10 0 59850  82782.000000  0     613943.337   1104880.317  -6778092.726
10 0 59850  82902.000000  0     865587.776    223824.311  -6836768.306
10 0 59850  83022.000000  0    1086756.544   -665243.495  -6776216.818
10 0 59850  83142.000000  0    1273617.181  -1546361.001  -6597480.674
10 0 59850  83262.000000  0    1423203.407  -2403633.936  -6303634.590
10 0 59850  83382.000000  0    1533462.142  -3221515.453  -5899739.813
10 0 59850  83502.000000  0    1603281.002  -3985085.738  -5392767.566
10 0 59850  83622.000000  0    1632495.660  -4680325.256  -4791488.389
10 0 59850  83742.000000  0    1621877.974  -5294374.166  -4106331.029
10 0 59850  83862.000000  0    1573103.885  -5815777.561  -3349212.814
10 0 59850  83982.000000  0    1488700.705  -6234709.480  -2533339.893
10 0 59850  84102.000000  0    1371976.288  -6543169.416  -1672981.123
10 0 59850  84222.000000  0    1226930.994  -6735146.839   -783219.053
10 0 59850  84342.000000  0    1058152.682  -6806749.167    120317.773
10 0 59850  84462.000000  0     870699.602  -6756287.855   1021735.613
10 0 59850  84582.000000  0     669972.331  -6584321.510   1905163.013
10 0 59850  84702.000000  0     461579.191  -6293653.592   2755040.369
10 0 59850  84822.000000  0     251197.523  -5889282.816   3556403.367
10 0 59850  84942.000000  0      44434.176  -5378309.374   4295151.755
10 0 59850  85062.000000  0    -153309.937  -4769802.049   4958300.348
10 0 59850  85182.000000  0    -336968.347  -4074627.112   5534207.944
10 0 59850  85302.000000  0    -501927.205  -3305244.603   6012779.856
10 0 59850  85422.000000  0    -644131.215  -2475474.926   6385640.342
10 0 59850  85542.000000  0    -760175.029  -1600244.403   6646271.098
10 0 59850  85662.000000  0    -847378.433   -695314.750   6790119.267
10 0 59850  85782.000000  0    -903844.559    223002.187   6814673.385
10 0 59850  85902.000000  0    -928499.598   1138138.772   6719504.557
10 0 59850  86022.000000  0    -921112.609   2033569.979   6506273.319
10 0 59850  86142.000000  0    -882295.974   2893111.173   6178702.426
10 0 59850  86262.000000  0    -813486.914   3701211.131   5742516.173
10 0 59850  86382.000000  0    -716909.888   4443236.079   5205345.530
10 0 59851    102.000000  0    -595520.443   5105739.191   4576601.175
10 0 59851    222.000000  0    -452931.943   5676712.920   3867313.704
10 0 59851    342.000000  0    -293325.430   6145813.637   3089943.254
10 0 59851    462.000000  0    -121347.108   6504561.305   2258164.771
10 0 59851    582.000000  0      58007.561   6746504.691   1386621.923
10 0 59851    702.000000  0     239519.975   6867343.420    490663.779
10 0 59851    822.000000  0     417879.993   6865009.534   -413932.416
10 0 59851    942.000000  0     587820.820   6739704.049  -1311248.407
10 0 59851   1062.000000  0     744251.624   6493886.264  -2185513.877
10 0 59851   1182.000000  0     882385.318   6132218.865  -3021390.215
10 0 59851   1302.000000  0     997859.619   5661470.155  -3804243.991
10 0 59851   1422.000000  0    1086847.944   5090375.916  -4520404.663
10 0 59851   1542.000000  0    1146157.416   4429464.719  -5157400.977
10 0 59851   1662.000000  0    1173311.864   3690852.188  -5704171.538
10 0 59851   1782.000000  0    1166617.706   2888010.160  -6151248.116
10 0 59851   1902.000000  0    1125212.043   2035514.265  -6490908.709
10 0 59851   2022.000000  0    1049092.148   1148777.718  -6717298.616
10 0 59851   2142.000000  0     939126.178    243774.921  -6826522.160
10 0 59851   2262.000000  0     797045.187   -663242.134  -6816702.442
10 0 59851   2382.000000  0     625415.944  -1556029.687  -6688008.802
10 0 59851   2502.000000  0     427595.847  -2418634.618  -6442653.010
10 0 59851   2622.000000  0     207670.325  -3235672.310  -6084857.530
10 0 59851   2742.000000  0     -29627.784  -3992598.815  -5620791.078
10 0 59851   2862.000000  0    -279013.774  -4675968.856  -5058471.772
10 0 59851   2982.000000  0    -534761.255  -5273677.993  -4407640.431
10 0 59851   3102.000000  0    -790825.597  -5775184.544  -3679602.830
10 0 59851   3222.000000  0   -1040977.845  -6171705.778  -2887041.990
10 0 59851   3342.000000  0   -1278946.288  -6456383.568  -2043803.459
10 0 59851   3462.000000  0   -1498562.842  -6624416.342  -1164655.852
10 0 59851   3582.000000  0   -1693910.206  -6673151.825   -265029.929
10 0 59851   3702.000000  0   -1859466.376  -6602137.390    639257.635
10 0 59851   3822.000000  0   -1990243.104  -6413126.483   1532289.928
10 0 59851   3942.000000  0   -2081914.275  -6110040.452   2398339.013
10 0 59851   4062.000000  0   -2130930.506  -5698886.179   3222152.115
10 0 59851   4182.000000  0   -2134616.752  -5187631.658   3989227.558
10 0 59851   4302.000000  0   -2091250.792  -4586043.896   4686074.421
10 0 59851   4422.000000  0   -2000121.321  -3905494.147   5300451.323
10 0 59851   4542.000000  0   -1861564.638  -3158733.766   5821581.457
10 0 59851   4662.000000  0   -1676977.570  -2359646.025   6240337.484
10 0 59851   4782.000000  0   -1448807.311  -1522982.573   6549395.084
10 0 59851   4902.000000  0   -1180519.826   -664087.628   6743355.570
10 0 59851   5022.000000  0    -876547.569    201385.903   6818833.695
10 0 59851   5142.000000  0    -542216.594   1057760.687   6774512.798
10 0 59851   5262.000000  0    -183653.101   1889618.501   6611167.035
10 0 59851   5382.000000  0     192328.736   2682077.577   6331648.594
10 0 59851   5502.000000  0     578355.400   3421058.682   5940840.699
10 0 59851   5622.000000  0     966636.787   4093537.286   5445577.744
99
